{
    "links": {
        "self": "http://www.neowsapp.com/rest/v1/neo/3179353?api_key=iIulBulltgU6a56xZRHN4H3l9WmuAYTsLGpBGhQ2"
    },
    "id": "3179353",
    "neo_reference_id": "3179353",
    "name": "(2004 GD2)",
    "designation": "2004 GD2",
    "nasa_jpl_url": "http://ssd.jpl.nasa.gov/sbdb.cgi?sstr=3179353",
    "absolute_magnitude_h": 24.3,
    "estimated_diameter": {
        "kilometers": {
            "estimated_diameter_min": 0.0366906138,
            "estimated_diameter_max": 0.0820427065
        },
        "meters": {
            "estimated_diameter_min": 36.6906137531,
            "estimated_diameter_max": 82.0427064882
        },
        "miles": {
            "estimated_diameter_min": 0.0227984834,
            "estimated_diameter_max": 0.0509789586
        },
        "feet": {
            "estimated_diameter_min": 120.3760332259,
            "estimated_diameter_max": 269.1689931548
        }
    },
    "is_potentially_hazardous_asteroid": false,
    "close_approach_data": [
        {
            "close_approach_date": "1952-02-05",
            "close_approach_date_full": "1952-Feb-05 10:44",
            "epoch_date_close_approach": -565017360000,
            "relative_velocity": {
                "kilometers_per_second": "18.9009812222",
                "kilometers_per_hour": "68043.5323999585",
                "miles_per_hour": "42279.6048959631"
            },
            "miss_distance": {
                "astronomical": "0.3892928924",
                "lunar": "151.4349351436",
                "kilometers": "58237387.509179188",
                "miles": "36187034.5831132744"
            },
            "orbiting_body": "Earth"
        },
        {
            "close_approach_date": "2004-04-14",
            "close_approach_date_full": "2004-Apr-14 01:26",
            "epoch_date_close_approach": 1081905960000,
            "relative_velocity": {
                "kilometers_per_second": "6.9042163258",
                "kilometers_per_hour": "24855.1787727538",
                "miles_per_hour": "15444.0414991036"
            },
            "miss_distance": {
                "astronomical": "0.0245430142",
                "lunar": "9.5472325238",
                "kilometers": "3671582.647699754",
                "miles": "2281415.6666304452"
            },
            "orbiting_body": "Earth"
        }
    ],
    "orbital_data": {
        "orbit_id": "14",
        "orbit_determination_date": "2017-04-06 09:12:57",
        "first_observation_date": "2004-04-12",
        "last_observation_date": "2004-05-02",
        "data_arc_in_days": 20,
        "observations_used": 153,
        "orbit_uncertainty": "7",
        "minimum_orbit_intersection": ".0236442",
        "jupiter_tisserand_invariant": "3.638",
        "epoch_osculation": "2459000.5",
        "eccentricity": ".5007103259478195",
        "semi_major_axis": "2.036131704025474",
        "inclination": "1.769677522740683",
        "ascending_node_longitude": "44.79207613371752",
        "orbital_period": "1061.224398461449",
        "perihelion_distance": "1.01661953483019",
        "perihelion_argument": "144.2460120306258",
        "aphelion_distance": "3.055643873220758",
        "perihelion_time": "2459463.599922600151",
        "mean_anomaly": "202.9022435049954",
        "mean_motion": ".3392307984267266",
        "equinox": "J2000",
        "orbit_class": {
            "orbit_class_type": "APO",
            "orbit_class_description": "Near-Earth asteroid orbits which cross the Earth’s orbit similar to that of 1862 Apollo",
            "orbit_class_range": "a (semi-major axis) > 1.0 AU; q (perihelion) < 1.017 AU"
        }
    },
    "is_sentry_object": false
}